start=new Date('2021-09-14T00:00:00.000Z').valueOf();
sats=[{"ECCENTRICITY":"0.00020370","TLE_LINE2":"2 46341  53.0546 152.5595 0002037  68.0871 292.0335 15.06402197 57626","MEAN_MOTION":"15.06402197","APOAPSIS":"548.618","MEAN_ELEMENT_THEORY":"SGP4","DECAY_DATE":null,"RCS_SIZE":"LARGE","EPOCH":"2021-09-13T02:20:32.233920","REV_AT_EPOCH":"5762","TIME_SYSTEM":"UTC","OBJECT_NAME":"STARLINK-1760","GP_ID":"184635664","OBJECT_TYPE":"PAYLOAD","PERIAPSIS":"545.796","CENTER_NAME":"EARTH","NORAD_CAT_ID":"46341","OBJECT_ID":"2020-062S","FILE":"3114796","ARG_OF_PERICENTER":"68.0871","RA_OF_ASC_NODE":"152.5595","COUNTRY_CODE":"US","ELEMENT_SET_NO":"999","MEAN_MOTION_DDOT":"0.0000000000000","MEAN_ANOMALY":"292.0335","EPHEMERIS_TYPE":"0","REF_FRAME":"TEME","SEMIMAJOR_AXIS":"6925.342","MEAN_MOTION_DOT":"-0.00000102","LAUNCH_DATE":"2020-09-03","BSTAR":"0.00001205000000","PERIOD":"95.592","CLASSIFICATION_TYPE":"U","SITE":"AFETR","TLE_LINE1":"1 46341U 20062S   21256.09759530 -.00000102  00000-0  12050-4 0  9998","INCLINATION":"53.0546"},{"REV_AT_EPOCH":"5734","OBJECT_NAME":"STARLINK-1762","TIME_SYSTEM":"UTC","GP_ID":"184635916","PERIAPSIS":"545.977","OBJECT_TYPE":"PAYLOAD","MEAN_ELEMENT_THEORY":"SGP4","RCS_SIZE":"LARGE","EPOCH":"2021-09-13T03:26:52.890144","DECAY_DATE":null,"MEAN_MOTION":"15.06396207","APOAPSIS":"548.474","ECCENTRICITY":"0.00018030","TLE_LINE2":"2 46342  53.0548 172.3441 0001803  57.2915 302.8248 15.06396207 57344","BSTAR":"-0.00000263380000","LAUNCH_DATE":"2020-09-03","PERIOD":"95.592","CLASSIFICATION_TYPE":"U","TLE_LINE1":"1 46342U 20062T   21256.14366771 -.00000321  00000-0 -26338-5 0  9995","SITE":"AFETR","INCLINATION":"53.0548","SEMIMAJOR_AXIS":"6925.360","REF_FRAME":"TEME","MEAN_ANOMALY":"302.8248","EPHEMERIS_TYPE":"0","MEAN_MOTION_DOT":"-0.00000321","ARG_OF_PERICENTER":"57.2915","FILE":"3114796","ELEMENT_SET_NO":"999","RA_OF_ASC_NODE":"172.3441","COUNTRY_CODE":"US","MEAN_MOTION_DDOT":"0.0000000000000","CENTER_NAME":"EARTH","NORAD_CAT_ID":"46342","OBJECT_ID":"2020-062T"},{"MEAN_ELEMENT_THEORY":"SGP4","DECAY_DATE":null,"RCS_SIZE":"LARGE","EPOCH":"2021-09-13T20:49:51.371616","REV_AT_EPOCH":"5773","TIME_SYSTEM":"UTC","OBJECT_NAME":"STARLINK-1764","GP_ID":"184663407","OBJECT_TYPE":"PAYLOAD","PERIAPSIS":"545.823","ECCENTRICITY":"0.00020220","TLE_LINE2":"2 46343  53.0547 149.0906 0002022  73.9534 286.1678 15.06396746 57739","MEAN_MOTION":"15.06396746","APOAPSIS":"548.624","EPHEMERIS_TYPE":"0","MEAN_ANOMALY":"286.1678","SEMIMAJOR_AXIS":"6925.359","REF_FRAME":"TEME","MEAN_MOTION_DOT":"-0.00000245","LAUNCH_DATE":"2020-09-03","BSTAR":"0.00000246210000","CLASSIFICATION_TYPE":"U","PERIOD":"95.592","SITE":"AFETR","TLE_LINE1":"1 46343U 20062U   21256.86795569 -.00000245  00000-0  24621-5 0  9993","INCLINATION":"53.0547","CENTER_NAME":"EARTH","NORAD_CAT_ID":"46343","OBJECT_ID":"2020-062U","FILE":"3115005","ARG_OF_PERICENTER":"73.9534","RA_OF_ASC_NODE":"149.0906","COUNTRY_CODE":"US","ELEMENT_SET_NO":"999","MEAN_MOTION_DDOT":"0.0000000000000"},{"SEMIMAJOR_AXIS":"6925.348","REF_FRAME":"TEME","EPHEMERIS_TYPE":"0","MEAN_ANOMALY":"296.5404","MEAN_MOTION_DOT":"0.00000102","BSTAR":"0.00002579300000","LAUNCH_DATE":"2020-09-03","CLASSIFICATION_TYPE":"U","PERIOD":"95.592","TLE_LINE1":"1 46344U 20062V   21256.88638431  .00000102  00000-0  25793-4 0  9991","SITE":"AFETR","INCLINATION":"53.0533","CENTER_NAME":"EARTH","NORAD_CAT_ID":"46344","OBJECT_ID":"2020-062V","ARG_OF_PERICENTER":"63.5795","FILE":"3115005","ELEMENT_SET_NO":"999","COUNTRY_CODE":"US","RA_OF_ASC_NODE":"149.0087","MEAN_MOTION_DDOT":"0.0000000000000","MEAN_ELEMENT_THEORY":"SGP4","EPOCH":"2021-09-13T21:16:23.604384","RCS_SIZE":"LARGE","DECAY_DATE":null,"REV_AT_EPOCH":"5773","OBJECT_NAME":"STARLINK-1765","TIME_SYSTEM":"UTC","GP_ID":"184664159","PERIAPSIS":"545.792","OBJECT_TYPE":"PAYLOAD","ECCENTRICITY":"0.00020520","TLE_LINE2":"2 46344  53.0533 149.0087 0002052  63.5795 296.5404 15.06400070 57730","MEAN_MOTION":"15.06400070","APOAPSIS":"548.634"},{"FILE":"3115005","ARG_OF_PERICENTER":"64.3946","COUNTRY_CODE":"US","RA_OF_ASC_NODE":"168.9917","ELEMENT_SET_NO":"999","MEAN_MOTION_DDOT":"0.0000000000000","CENTER_NAME":"EARTH","NORAD_CAT_ID":"46345","OBJECT_ID":"2020-062W","BSTAR":"0.00012815000000","LAUNCH_DATE":"2020-09-03","PERIOD":"95.592","CLASSIFICATION_TYPE":"U","SITE":"AFETR","TLE_LINE1":"1 46345U 20062W   21256.88823083  .00001627  00000-0  12815-3 0  9994","INCLINATION":"53.0530","MEAN_ANOMALY":"295.7245","EPHEMERIS_TYPE":"0","SEMIMAJOR_AXIS":"6925.359","REF_FRAME":"TEME","MEAN_MOTION_DOT":"0.00001627","MEAN_MOTION":"15.06396449","APOAPSIS":"548.574","ECCENTRICITY":"0.00019490","TLE_LINE2":"2 46345  53.0530 168.9917 0001949  64.3946 295.7245 15.06396449 57458","REV_AT_EPOCH":"5745","TIME_SYSTEM":"UTC","OBJECT_NAME":"STARLINK-1767","GP_ID":"184663892","OBJECT_TYPE":"PAYLOAD","PERIAPSIS":"545.875","MEAN_ELEMENT_THEORY":"SGP4","DECAY_DATE":null,"RCS_SIZE":"LARGE","EPOCH":"2021-09-13T21:19:03.143712"},{"CLASSIFICATION_TYPE":"U","PERIOD":"93.856","BSTAR":"-0.00000677700000","LAUNCH_DATE":"2020-09-03","INCLINATION":"53.0544","TLE_LINE1":"1 46346U 20062X   21256.69174492 -.00000604  00000-0 -67770-5 0  9995","SITE":"AFETR","SEMIMAJOR_AXIS":"6841.261","REF_FRAME":"TEME","MEAN_ANOMALY":"247.5681","EPHEMERIS_TYPE":"0","MEAN_MOTION_DOT":"-0.00000604","ARG_OF_PERICENTER":"112.5447","FILE":"3115005","MEAN_MOTION_DDOT":"0.0000000000000","ELEMENT_SET_NO":"999","RA_OF_ASC_NODE":"67.6694","COUNTRY_CODE":"US","NORAD_CAT_ID":"46346","CENTER_NAME":"EARTH","OBJECT_ID":"2020-062X","OBJECT_NAME":"STARLINK-1546","TIME_SYSTEM":"UTC","REV_AT_EPOCH":"5886","PERIAPSIS":"462.307","OBJECT_TYPE":"PAYLOAD","GP_ID":"184662657","MEAN_ELEMENT_THEORY":"SGP4","RCS_SIZE":"LARGE","EPOCH":"2021-09-13T16:36:06.761088","DECAY_DATE":null,"MEAN_MOTION":"15.34258336","APOAPSIS":"463.945","TLE_LINE2":"2 46346  53.0544  67.6694 0001197 112.5447 247.5681 15.34258336 58866","ECCENTRICITY":"0.00011970"},{"OBJECT_ID":"2020-062Y","CENTER_NAME":"EARTH","NORAD_CAT_ID":"46347","RA_OF_ASC_NODE":"123.8737","COUNTRY_CODE":"US","ELEMENT_SET_NO":"999","MEAN_MOTION_DDOT":"0.0000000000000","ARG_OF_PERICENTER":"83.5218","FILE":"3115005","MEAN_MOTION_DOT":"-0.00000183","EPHEMERIS_TYPE":"0","MEAN_ANOMALY":"276.5991","REF_FRAME":"TEME","SEMIMAJOR_AXIS":"6925.374","SITE":"AFETR","TLE_LINE1":"1 46347U 20062Y   21256.91265785 -.00000183  00000-0  66503-5 0  9991","INCLINATION":"53.0542","BSTAR":"0.00000665030000","LAUNCH_DATE":"2020-09-03","CLASSIFICATION_TYPE":"U","PERIOD":"95.593","ECCENTRICITY":"0.00019300","TLE_LINE2":"2 46347  53.0542 123.8737 0001930  83.5218 276.5991 15.06391626 58074","APOAPSIS":"548.576","MEAN_MOTION":"15.06391626","DECAY_DATE":null,"RCS_SIZE":"LARGE","EPOCH":"2021-09-13T21:54:13.638240","MEAN_ELEMENT_THEORY":"SGP4","GP_ID":"184662907","OBJECT_TYPE":"PAYLOAD","PERIAPSIS":"545.903","REV_AT_EPOCH":"5807","TIME_SYSTEM":"UTC","OBJECT_NAME":"STARLINK-1547"},{"OBJECT_NAME":"STARLINK-1553","TIME_SYSTEM":"UTC","REV_AT_EPOCH":"5760","PERIAPSIS":"546.083","OBJECT_TYPE":"PAYLOAD","GP_ID":"184635415","MEAN_ELEMENT_THEORY":"SGP4","EPOCH":"2021-09-13T00:39:41.603040","RCS_SIZE":"LARGE","DECAY_DATE":null,"MEAN_MOTION":"15.06393188","APOAPSIS":"548.385","TLE_LINE2":"2 46348  53.0539 152.8559 0001662  74.5623 285.5549 15.06393188 57609","ECCENTRICITY":"0.00016620","CLASSIFICATION_TYPE":"U","PERIOD":"95.593","LAUNCH_DATE":"2020-09-03","BSTAR":"0.00002906100000","INCLINATION":"53.0539","TLE_LINE1":"1 46348U 20062Z   21256.02756485  .00000151  00000-0  29061-4 0  9997","SITE":"AFETR","REF_FRAME":"TEME","SEMIMAJOR_AXIS":"6925.369","MEAN_ANOMALY":"285.5549","EPHEMERIS_TYPE":"0","MEAN_MOTION_DOT":"0.00000151","FILE":"3114796","ARG_OF_PERICENTER":"74.5623","MEAN_MOTION_DDOT":"0.0000000000000","ELEMENT_SET_NO":"999","COUNTRY_CODE":"US","RA_OF_ASC_NODE":"152.8559","NORAD_CAT_ID":"46348","CENTER_NAME":"EARTH","OBJECT_ID":"2020-062Z"},{"MEAN_MOTION":"15.06395088","APOAPSIS":"548.452","ECCENTRICITY":"0.00017660","TLE_LINE2":"2 46349  53.0551 127.7375 0001766  85.3640 274.7550 15.06395088 57956","REV_AT_EPOCH":"5795","OBJECT_NAME":"STARLINK-1575","TIME_SYSTEM":"UTC","GP_ID":"184635665","PERIAPSIS":"546.006","OBJECT_TYPE":"PAYLOAD","MEAN_ELEMENT_THEORY":"SGP4","RCS_SIZE":"LARGE","EPOCH":"2021-09-13T00:35:02.727168","DECAY_DATE":null,"FILE":"3114796","ARG_OF_PERICENTER":"85.3640","ELEMENT_SET_NO":"999","RA_OF_ASC_NODE":"127.7375","COUNTRY_CODE":"US","MEAN_MOTION_DDOT":"0.0000000000000","CENTER_NAME":"EARTH","NORAD_CAT_ID":"46349","OBJECT_ID":"2020-062AA","BSTAR":"-0.00001720900000","LAUNCH_DATE":"2020-09-03","CLASSIFICATION_TYPE":"U","PERIOD":"95.592","TLE_LINE1":"1 46349U 20062AA  21256.02433712 -.00000538  00000-0 -17209-4 0  9995","SITE":"AFETR","INCLINATION":"53.0551","REF_FRAME":"TEME","SEMIMAJOR_AXIS":"6925.364","MEAN_ANOMALY":"274.7550","EPHEMERIS_TYPE":"0","MEAN_MOTION_DOT":"-0.00000538"},{"APOAPSIS":"548.673","MEAN_MOTION":"15.06389590","ECCENTRICITY":"0.00020610","TLE_LINE2":"2 46350  53.0545 169.1568 0002061  63.3362 296.7838 15.06389590 57450","GP_ID":"184663158","PERIAPSIS":"545.818","OBJECT_TYPE":"PAYLOAD","REV_AT_EPOCH":"5745","OBJECT_NAME":"STARLINK-1617","TIME_SYSTEM":"UTC","RCS_SIZE":"LARGE","EPOCH":"2021-09-13T20:25:58.799136","DECAY_DATE":null,"MEAN_ELEMENT_THEORY":"SGP4","ELEMENT_SET_NO":"999","RA_OF_ASC_NODE":"169.1568","COUNTRY_CODE":"US","MEAN_MOTION_DDOT":"0.0000000000000","FILE":"3115005","ARG_OF_PERICENTER":"63.3362","OBJECT_ID":"2020-062AB","CENTER_NAME":"EARTH","NORAD_CAT_ID":"46350","TLE_LINE1":"1 46350U 20062AB  21256.85137499 -.00000313  00000-0 -20752-5 0  9990","SITE":"AFETR","INCLINATION":"53.0545","LAUNCH_DATE":"2020-09-03","BSTAR":"-0.00000207520000","CLASSIFICATION_TYPE":"U","PERIOD":"95.593","MEAN_MOTION_DOT":"-0.00000313","SEMIMAJOR_AXIS":"6925.380","REF_FRAME":"TEME","MEAN_ANOMALY":"296.7838","EPHEMERIS_TYPE":"0"}];
